COSMOS 2433 (720)       
1 32275U 07052A   22030.27440436 -.00000056  00000-0  00000-0 0  9992
2 32275  66.0830   9.2547 0005079 265.1143 189.2687  2.13104192111023
COSMOS 2432 (719)       
1 32276U 07052B   22030.06577424 -.00000055  00000-0  00000-0 0  9997
2 32276  66.0960   9.3602 0011873 318.6601 284.3326  2.13103517111019
COSMOS 2434 (721)       
1 32393U 07065A   22030.08250016  .00000098  00000-0  00000-0 0  9994
2 32393  64.4091 246.1535 0004671  72.6852 123.5321  2.13103136109726
COSMOS 2436 (723)       
1 32395U 07065C   22030.23625451  .00000097  00000-0  00000-0 0  9991
2 32395  64.4179 246.2043 0016654   5.9947  84.1373  2.13102964109668
COSMOS 2456 (730)       
1 36111U 09070A   22029.98791771 -.00000020  00000-0  00000-0 0  9995
2 36111  64.3203 125.8091 0002768 311.3728 339.7975  2.13099111 94380
COSMOS 2457 (733)       
1 36112U 09070B   22030.26112928 -.00000019  00000-0  00000-0 0  9998
2 36112  64.3028 125.6784 0005907 162.7691 104.1927  2.13101321 94397
COSMOS 2461 (735)       
1 36401U 10007B   22030.19939791 -.00000057  00000-0  00000-0 0  9990
2 36401  65.9712   8.1145 0020604 359.3745 255.0217  2.13103764 92744
COSMOS 2460 (732)       
1 36402U 10007C   22030.06528453 -.00000056  00000-0  00000-0 0  9995
2 36402  65.9575   8.0715 0002466 287.6477 170.9683  2.13106492 92748
COSMOS 2464 (736)       
1 37139U 10041C   22030.24123743  .00000096  00000-0  00000-0 0  9997
2 37139  64.0084 245.2918 0030232  13.0508 164.2019  2.13100823 88802
COSMOS 2476 (744)       
1 37867U 11064A   22030.18703506 -.00000019  00000-0  00000-0 0  9991
2 37867  64.6113 127.1041 0021167 233.8920 114.3310  2.13101837 79739
COSMOS 2477 (745)       
1 37868U 11064B   22030.39930155 -.00000018  00000-0  00000-0 0  9996
2 37868  64.6190 127.1601 0018308 234.2071  95.0608  2.13101608 79698
COSMOS 2475 (743)       
1 37869U 11064C   22030.39342809 -.00000018  00000-0  00000-0 0  9990
2 37869  64.6265 127.1672 0022179 254.1426  28.5198  2.13101766 79708
COSMOS 2485 (747)       
1 39155U 13019A   22030.05337929 -.00000020  00000-0  00000-0 0  9995
2 39155  64.7761 127.5071 0021701 229.9591  60.1590  2.13101799 68207
COSMOS 2492 (754)       
1 39620U 14012A   22029.93287644 -.00000056  00000-0  00000-0 0  9998
2 39620  65.8447   7.7773 0015128 317.3600 274.9082  2.13103250 61156
COSMOS 2500 (755)       
1 40001U 14032A   22030.13515181 -.00000058  00000-0  00000-0 0  9991
2 40001  65.7847   7.6416 0007129 224.6317  21.8385  2.13102471 59374
COSMOS 2501 (702K)      
1 40315U 14075A   22029.99541628  .00000098  00000-0  00000-0 0  9996
2 40315  63.7179 246.0221 0016185 207.1319  99.4697  2.13101392 55779
COSMOS 2514 (751)       
1 41330U 16008A   22030.10599356 -.00000058  00000-0  00000-0 0  9995
2 41330  65.5848   7.3686 0011039 226.1111 181.5681  2.13102854 46542
COSMOS 2516 (753)       
1 41554U 16032A   22030.40599198  .00000094  00000-0  00000-0 0  9996
2 41554  63.9427 246.2453 0011939 214.5438 323.3148  2.13106087 44154
COSMOS 2522 (752)       
1 42939U 17055A   22029.66865914  .00000101  00000-0  00000-0 0  9997
2 42939  64.1766 246.6252 0005324 248.6804 302.5380  2.13102098 33892
COSMOS 2527 (756)       
1 43508U 18053A   22030.19767367 -.00000019  00000-0  00000-0 0  9991
2 43508  64.9394 127.4732 0008088 223.1724  45.9926  2.13102538 28198
COSMOS 2529 (757)       
1 43687U 18086A   22028.54111781  .00000105  00000-0  00000-0 0  9999
2 43687  64.3912 246.9435 0007911 277.7252  83.9952  2.13102130 25183
COSMOS 2534 (758)       
1 44299U 19030A   22030.44099505  .00000094  00000-0  00000-0 0  9997
2 44299  64.4627 246.7493 0011183 298.1140 215.7875  2.13101974 20862
COSMOS 2544 (759)       
1 44850U 19088A   22030.12678727 -.00000019  00000-0  00000-0 0  9995
2 44850  64.9243 127.3313 0011730 255.9826   2.3708  2.13102327 16626
COSMOS 2545 (760)       
1 45358U 20018A   22030.08558563 -.00000059  00000-0  00000-0 0  9998
2 45358  64.9218   8.0917 0010971 256.9541 179.4784  2.13102728 14586
COSMOS 2547 (705K)      
1 46805U 20075A   22030.06607316  .00000099  00000-0  00000-0 0  9991
2 46805  64.6861 246.1457 0005378 251.4687  22.0211  2.13102961  9823
